[{"OBJECT_NAME":"STARLINK-4260","OBJECT_ID":"2022-076A","EPOCH":"2026-03-09T10:42:58.474368","MEAN_MOTION":15.08846027,"ECCENTRICITY":0.00012979,"INCLINATION":53.2165,"RA_OF_ASC_NODE":95.2121,"ARG_OF_PERICENTER":100.1484,"MEAN_ANOMALY":259.9654,"EPHEMERIS_TYPE":0,"CLASSIFICATION_TYPE":"U","NORAD_CAT_ID":52986,"ELEMENT_SET_NO":999,"REV_AT_EPOCH":20280,"BSTAR":0.00011157906,"MEAN_MOTION_DOT":1.489e-5,"MEAN_MOTION_DDOT":0},{"OBJECT_NAME":"OBJECT B","OBJECT_ID":"2023-069B","EPOCH":"2026-03-09T13:07:46.108416","MEAN_MOTION":15.09579619,"ECCENTRICITY":0.00116524,"INCLINATION":41.0081,"RA_OF_ASC_NODE":274.4606,"ARG_OF_PERICENTER":279.7432,"MEAN_ANOMALY":80.2064,"EPHEMERIS_TYPE":0,"CLASSIFICATION_TYPE":"U","NORAD_CAT_ID":56732,"ELEMENT_SET_NO":999,"REV_AT_EPOCH":15516,"BSTAR":0.00042419683,"MEAN_MOTION_DOT":6.772e-5,"MEAN_MOTION_DDOT":0}]
