STARLINK-4260           
1 52986U 22076A   26068.44651012  .00001489  00000+0  11158-3 0  9992
2 52986  53.2165  95.2121 0001297 100.1484 259.9654 15.08846027202804
2023-069B               
1 56732U 23069B   26068.54706144  .00006772  00000+0  42420-3 0  9992
2 56732  41.0081 274.4606 0011652 279.7432  80.2064 15.09579619155167
